
# Worst residual: 73.97 km
# MJD 60764.000000 (2025 Mar 30  0:00)
A11itwU = A11iIUr = A11ihl5
1 79895U 25000ZZX 25089.49919926  .00000000  00000-0  00000-0 0 25930
2 79895 037.3314 027.3453 6620286 328.8205 240.4743 01.01954387    05

# Worst residual: 92.79 km
# MJD 60765.000000 (2025 Mar 31  0:00)
A11itwU = A11iIUr = A11ihl5
1 79895U 25000ZZX 25090.49919926  .00000000  00000-0  00000-0 0 25932
2 79895 037.4212 027.2177 6600370 329.4540 247.3669 01.01959688    08

# Worst residual: 109.29 km
# MJD 60766.000000 (2025 Apr  1  0:00)
A11itwU = A11iIUr = A11ihl5
1 79895U 25000ZZX 25091.49919926  .00000000  00000-0  00000-0 0 25933
2 79895 037.5156 027.0924 6579788 330.0855 254.2618 01.01970647    08

# Worst residual: 120.38 km
# MJD 60767.000000 (2025 Apr  2  0:00)
A11itwU = A11iIUr = A11ihl5
1 79895U 25000ZZX 25092.49919926  .00000000  00000-0  00000-0 0 25934
2 79895 037.6131 026.9666 6559300 330.7169 261.1664 01.01979777    07

# Worst residual: 129.66 km
# MJD 60768.000000 (2025 Apr  3  0:00)
A11itwU = A11iIUr = A11ihl5
1 79895U 25000ZZX 25093.49919926  .00000000  00000-0  00000-0 0 25935
2 79895 037.7003 026.8549 6537681 331.3407 268.0655 01.02002329    02

# Worst residual: 130.78 km
# MJD 60769.000000 (2025 Apr  4  0:00)
A11itwU = A11iIUr = A11ihl5
1 79895U 25000ZZX 25094.49919926  .00000000  00000-0  00000-0 0 25936
2 79895 037.7954 026.7397 6516561 331.9701 274.9700 01.02013377    06

# Worst residual: 124.02 km
# MJD 60770.000000 (2025 Apr  5  0:00)
A11itwU = A11iIUr = A11ihl5
1 79895U 25000ZZX 25095.49919926  .00000000  00000-0  00000-0 0 25937
2 79895 037.8776 026.6408 6494462 332.5989 281.8596 01.02044936    06

# Worst residual: 134.68 km
# MJD 60771.000000 (2025 Apr  6  0:00)
A11itwU = A11iIUr = A11ihl5
1 79895U 25000ZZX 25096.49919926  .00000000  00000-0  00000-0 0 25938
2 79895 037.9571 026.5351 6470777 333.2173 288.7678 01.02060872    06

# Worst residual: 134.48 km
# MJD 60772.000000 (2025 Apr  7  0:00)
A11itwU = A11iIUr = A11ihl5
1 79895U 25000ZZX 25097.49919926  .00000000  00000-0  00000-0 0 25939
2 79895 038.0387 026.4356 6447112 333.8397 295.6751 01.02081182    04

# Worst residual: 132.00 km
# MJD 60773.000000 (2025 Apr  8  0:00)
A11itwU = A11iIUr = A11ihl5
1 79895U 25000ZZX 25098.49919926  .00000000  00000-0  00000-0 0 25930
2 79895 038.1187 026.3399 6422986 334.4610 302.5851 01.02102984    09

# Worst residual: 126.77 km
# MJD 60774.000000 (2025 Apr  9  0:00)
A11itwU = A11iIUr = A11ihl5
1 79895U 25000ZZX 25099.49919926  .00000000  00000-0  00000-0 0 25931
2 79895 038.1965 026.2482 6398333 335.0827 309.4933 01.02126505    02

# Worst residual: 121.84 km
# MJD 60775.000000 (2025 Apr 10  0:00)
A11itwU = A11iIUr = A11ihl5
1 79895U 25000ZZX 25100.49919926  .00000000  00000-0  00000-0 0 25934
2 79895 038.2716 026.1609 6372952 335.7057 316.3978 01.02151528    07

# Worst residual: 130.09 km
# MJD 60776.000000 (2025 Apr 11  0:00)
A11itwU = A11iIUr = A11ihl5
1 79895U 25000ZZX 25101.49919926  .00000000  00000-0  00000-0 0 25935
2 79895 038.3440 026.0776 6346576 336.3292 323.3003 01.02177469    06

# Worst residual: 137.53 km
# MJD 60777.000000 (2025 Apr 12  0:00)
A11itwU = A11iIUr = A11ihl5
1 79895U 25000ZZX 25102.49919926  .00000000  00000-0  00000-0 0 25936
2 79895 038.4138 025.9981 6319099 336.9499 330.2084 01.02203466    05

# Worst residual: 142.85 km
# MJD 60778.000000 (2025 Apr 13  0:00)
A11itwU = A11iIUr = A11ihl5
1 79895U 25000ZZX 25103.49919926  .00000000  00000-0  00000-0 0 25937
2 79895 038.4809 025.9223 6290801 337.5648 337.1281 01.02229248    02

# Worst residual: 130.24 km
# MJD 60779.000000 (2025 Apr 14  0:00)
A11itwU = A11iIUr = A11ihl5
1 79895U 25000ZZX 25104.49919926  .00000000  00000-0  00000-0 0 25938
2 79895 038.5488 025.8489 6262942 338.1773 344.0626 01.02236262    04

# Worst residual: 136.80 km
# MJD 60780.000000 (2025 Apr 15  0:00)
A11itwU = A11iIUr = A11ihl5
1 79895U 25000ZZX 25105.49919926  .00000000  00000-0  00000-0 0 25939
2 79895 038.5991 025.7755 6233715 338.7871 350.9985 01.02274021    08

# Worst residual: 143.53 km
# MJD 60781.000000 (2025 Apr 16  0:00)
A11itwU = A11iIUr = A11ihl5
1 79895U 25000ZZX 25106.49919926  .00000000  00000-0  00000-0 0 25930
2 79895 038.6638 025.7163 6203549 339.3863 357.9349 01.02304538    08

# Worst residual: 135.07 km
# MJD 60782.000000 (2025 Apr 17  0:00)
A11itwU = A11iIUr = A11ihl5
1 79895U 25000ZZX 25107.49919926  .00000000  00000-0  00000-0 0 25931
2 79895 038.7167 025.6548 6173640 339.9897 004.8712 01.02315238    04

# Worst residual: 128.78 km
# MJD 60783.000000 (2025 Apr 18  0:00)
A11itwU = A11iIUr = A11ihl5
1 79895U 25000ZZX 25108.49919926  .00000000  00000-0  00000-0 0 25932
2 79895 038.7638 025.5935 6144095 340.5932 011.8284 01.02340830    04

# Worst residual: 126.62 km
# MJD 60784.000000 (2025 Apr 19  0:00)
A11itwU = A11iIUr = A11ihl5
1 79895U 25000ZZX 25109.49919926  .00000000  00000-0  00000-0 0 25933
2 79895 038.8247 025.5257 6112521 341.2078 018.7771 01.02363178    03

# Worst residual: 118.70 km
# MJD 60785.000000 (2025 Apr 20  0:00)
A11itwU = A11iIUr = A11ihl5
1 79895U 25000ZZX 25110.49919926  .00000000  00000-0  00000-0 0 25935
2 79895 038.8726 025.4794 6081644 341.8009 025.7291 01.02376614    05

# Worst residual: 101.85 km
# MJD 60786.000000 (2025 Apr 21  0:00)
A11itwU = A11iIUr = A11ihl5
1 79895U 25000ZZX 25111.49919926  .00000000  00000-0  00000-0 0 25936
2 79895 038.9238 025.4256 6051463 342.4071 032.6749 01.02375718    08

# Worst residual: 92.65 km
# MJD 60787.000000 (2025 Apr 22  0:00)
A11itwU = A11iIUr = A11ihl5
1 79895U 25000ZZX 25112.49919926  .00000000  00000-0  00000-0 0 25937
2 79895 038.9629 025.3756 6019959 343.0165 039.6276 01.02387259    06

# Worst residual: 81.64 km
# MJD 60788.000000 (2025 Apr 23  0:00)
A11itwU = A11iIUr = A11ihl5
1 79895U 25000ZZX 25113.49919926  .00000000  00000-0  00000-0 0 25938
2 79895 039.0017 025.3273 5987706 343.6095 046.5773 01.02375717    09

# Worst residual: 80.85 km
# MJD 60789.000000 (2025 Apr 24  0:00)
A11itwU = A11iIUr = A11ihl5
1 79895U 25000ZZX 25114.49919926  .00000000  00000-0  00000-0 0 25939
2 79895 039.0503 025.2787 5956306 344.2054 053.4674 01.02344380    01

# Worst residual: 91.97 km
# MJD 60790.000000 (2025 Apr 25  0:00)
A11itwU = A11iIUr = A11ihl5
1 79895U 25000ZZX 25115.49919926  .00000000  00000-0  00000-0 0 25930
2 79895 039.0734 025.2349 5924471 344.8018 060.2817 01.02318796    02

# Worst residual: 96.94 km
# MJD 60791.000000 (2025 Apr 26  0:00)
A11itwU = A11iIUr = A11ihl5
1 79895U 25000ZZX 25116.49919926  .00000000  00000-0  00000-0 0 25931
2 79895 039.1057 025.1912 5892669 345.3990 066.9876 01.02280075    00

# Worst residual: 100.58 km
# MJD 60792.000000 (2025 Apr 27  0:00)
A11itwU = A11iIUr = A11ihl5
1 79895U 25000ZZX 25117.49919926  .00000000  00000-0  00000-0 0 25932
2 79895 039.1360 025.1492 5860513 345.9999 073.5713 01.02235836    07
